[{"OBJECT_NAME":"STARLINK-30466","OBJECT_ID":"2023-146P","EPOCH":"2026-03-09T22:00:01.999584","MEAN_MOTION":15.06656743,"ECCENTRICITY":0.00023085,"INCLINATION":43.0004,"RA_OF_ASC_NODE":311.9092,"ARG_OF_PERICENTER":267.3679,"MEAN_ANOMALY":62.4608,"EPHEMERIS_TYPE":0,"CLASSIFICATION_TYPE":"U","NORAD_CAT_ID":57904,"ELEMENT_SET_NO":999,"REV_AT_EPOCH":572,"BSTAR":0.10518613,"MEAN_MOTION_DOT":0.01742724,"MEAN_MOTION_DDOT":0},{"OBJECT_NAME":"FALCON 9 DEB","OBJECT_ID":"2021-041BH","EPOCH":"2026-03-09T15:22:42.897792","MEAN_MOTION":15.1290094,"ECCENTRICITY":0.0010029,"INCLINATION":53.0279,"RA_OF_ASC_NODE":186.1166,"ARG_OF_PERICENTER":187.1036,"MEAN_ANOMALY":172.9815,"EPHEMERIS_TYPE":0,"CLASSIFICATION_TYPE":"U","NORAD_CAT_ID":48608,"ELEMENT_SET_NO":999,"REV_AT_EPOCH":26435,"BSTAR":0.00033747,"MEAN_MOTION_DOT":5.718e-5,"MEAN_MOTION_DDOT":0}]
